[{"OBJECT_NAME":"OBJECT A","OBJECT_ID":"2025-013A","EPOCH":"2026-03-09T23:29:31.895232","MEAN_MOTION":15.29260221,"ECCENTRICITY":0.0010321,"INCLINATION":97.6364,"RA_OF_ASC_NODE":244.5149,"ARG_OF_PERICENTER":282.3775,"MEAN_ANOMALY":77.6309,"EPHEMERIS_TYPE":0,"CLASSIFICATION_TYPE":"U","NORAD_CAT_ID":62729,"ELEMENT_SET_NO":999,"REV_AT_EPOCH":6276,"BSTAR":0.0013206527,"MEAN_MOTION_DOT":0.00037616,"MEAN_MOTION_DDOT":0},{"OBJECT_NAME":"STARLINK-34469","OBJECT_ID":"2025-137X","EPOCH":"2026-03-09T22:05:41.409888","MEAN_MOTION":15.30205059,"ECCENTRICITY":0.00010363,"INCLINATION":53.1596,"RA_OF_ASC_NODE":333.9228,"ARG_OF_PERICENTER":73.1634,"MEAN_ANOMALY":286.948,"EPHEMERIS_TYPE":0,"CLASSIFICATION_TYPE":"U","NORAD_CAT_ID":64615,"ELEMENT_SET_NO":999,"REV_AT_EPOCH":4077,"BSTAR":0.00082345756,"MEAN_MOTION_DOT":0.00024112,"MEAN_MOTION_DDOT":0}]
